IRIDIUM 171             
1 43929U 19002H   24291.61707316  .00001406  00000+0  49488-3 0  9994
2 43929  86.3960 247.6683 0002641  79.1912 280.9581 14.34221801301877
IRIDIUM 170             
1 43930U 19002J   24292.34948599  .00004672  00000+0  73674-3 0  9999
2 43930  86.6082 247.1593 0002277  80.2955 279.8519 14.72251962309977
IRIDIUM 167             
1 43931U 19002K   24291.88981601  .00001341  00000+0  47176-3 0  9997
2 43931  86.3953 247.3319 0002570  83.2834 276.8654 14.34216542301911
IRIDIUM 181             
1 56726U 23068S   24291.52020674  .00000727  00000+0  20897-3 0  9993
2 56726  86.8588 307.2013 0002674  86.5899 273.5608 14.43567416 74789
IRIDIUM 177             
1 56727U 23068T   24292.39532521  .00005803  00000+0  76000-3 0  9996
2 56727  86.1942 256.8315 0002972  96.5932 263.5627 14.80227336 76609
IRIDIUM 174             
1 56728U 23068U   24292.38991723  .00005622  00000+0  73597-3 0  9996
2 56728  86.1946 256.9478 0002966  90.9416 269.2144 14.80238793 76609
IRIDIUM 178             
1 56729U 23068V   24291.91130212  .00002182  00000+0  28369-3 0  9998
2 56729  86.5721 280.4673 0002621  87.6149 272.5372 14.80227653 76533
IRIDIUM 179             
1 56730U 23068W   24291.83825698  .00001704  00000+0  22087-3 0  9990
2 56730  86.6726 286.1832 0002727  95.6822 264.4710 14.80232016 76529
